BEIDOU-3 G3             
1 45807U 20040A   26095.26770332 -.00000351  00000+0  00000+0 0  9990
2 45807   2.2687  67.2270 0004580 328.5008   4.7695  1.00269679 21338
GALAXY 30 (G-30)        
1 46114U 20056C   26094.93579735  .00000000  00000+0  00000+0 0  9996
2 46114   0.0165 201.4199 0002457 199.6088   4.1053  1.00272177 20557
QZS-1R (MICHIBIKI-1R)   
1 49336U 21096A   26095.27455001 -.00000240  00000+0  00000+0 0  9994
2 49336  37.3126  80.6561 0750097 270.3991  76.8352  1.00280796 16274
QZS-6 (MICHIBIKI-6)     
1 62876U 25023A   26095.12753198 -.00000233  00000+0  00000+0 0  9996
2 62876   0.0340 279.5348 0002107 107.3337 302.9970  1.00274000  4222
